[{"OBJECT_NAME":"ONEWEB-0497","OBJECT_ID":"2022-138D","EPOCH":"2025-12-10T06:58:40.418976","MEAN_MOTION":13.19724409,"ECCENTRICITY":0.00018579,"INCLINATION":87.9199,"RA_OF_ASC_NODE":342.5476,"ARG_OF_PERICENTER":86.3843,"MEAN_ANOMALY":273.7503,"EPHEMERIS_TYPE":0,"CLASSIFICATION_TYPE":"U","NORAD_CAT_ID":54116,"ELEMENT_SET_NO":999,"REV_AT_EPOCH":15189,"BSTAR":0.00011553819,"MEAN_MOTION_DOT":5.9e-7,"MEAN_MOTION_DDOT":0},{"OBJECT_NAME":"ONEWEB-0499","OBJECT_ID":"2022-138E","EPOCH":"2025-12-10T01:07:16.593312","MEAN_MOTION":13.19725559,"ECCENTRICITY":0.00019878,"INCLINATION":87.9197,"RA_OF_ASC_NODE":342.6092,"ARG_OF_PERICENTER":90.9502,"MEAN_ANOMALY":269.1858,"EPHEMERIS_TYPE":0,"CLASSIFICATION_TYPE":"U","NORAD_CAT_ID":54117,"ELEMENT_SET_NO":999,"REV_AT_EPOCH":15187,"BSTAR":2.4674079e-5,"MEAN_MOTION_DOT":2.3e-7,"MEAN_MOTION_DDOT":0},{"OBJECT_NAME":"ONEWEB-0500","OBJECT_ID":"2022-138F","EPOCH":"2025-12-10T01:10:40.764288","MEAN_MOTION":13.19723748,"ECCENTRICITY":0.00017148,"INCLINATION":87.9199,"RA_OF_ASC_NODE":342.5962,"ARG_OF_PERICENTER":87.5758,"MEAN_ANOMALY":272.5571,"EPHEMERIS_TYPE":0,"CLASSIFICATION_TYPE":"U","NORAD_CAT_ID":54118,"ELEMENT_SET_NO":999,"REV_AT_EPOCH":15188,"BSTAR":-2.4039206e-5,"MEAN_MOTION_DOT":3.0e-8,"MEAN_MOTION_DDOT":0},{"OBJECT_NAME":"ONEWEB-0501","OBJECT_ID":"2022-138G","EPOCH":"2025-12-10T00:04:43.657248","MEAN_MOTION":13.19724134,"ECCENTRICITY":0.00021354,"INCLINATION":87.9209,"RA_OF_ASC_NODE":342.6035,"ARG_OF_PERICENTER":84.5674,"MEAN_ANOMALY":275.5702,"EPHEMERIS_TYPE":0,"CLASSIFICATION_TYPE":"U","NORAD_CAT_ID":54119,"ELEMENT_SET_NO":999,"REV_AT_EPOCH":15185,"BSTAR":-0.00017701446,"MEAN_MOTION_DOT":-5.8e-7,"MEAN_MOTION_DDOT":0},{"OBJECT_NAME":"ONEWEB-0502","OBJECT_ID":"2022-138H","EPOCH":"2025-12-10T07:00:57.295584","MEAN_MOTION":13.19724796,"ECCENTRICITY":0.00020716,"INCLINATION":87.9207,"RA_OF_ASC_NODE":342.5276,"ARG_OF_PERICENTER":88.6844,"MEAN_ANOMALY":271.4527,"EPHEMERIS_TYPE":0,"CLASSIFICATION_TYPE":"U","NORAD_CAT_ID":54120,"ELEMENT_SET_NO":999,"REV_AT_EPOCH":15191,"BSTAR":8.1970122e-5,"MEAN_MOTION_DOT":4.6e-7,"MEAN_MOTION_DDOT":0},{"OBJECT_NAME":"ONEWEB-0503","OBJECT_ID":"2022-138J","EPOCH":"2025-12-10T01:17:29.901984","MEAN_MOTION":13.19724348,"ECCENTRICITY":0.0001876,"INCLINATION":87.9206,"RA_OF_ASC_NODE":342.5791,"ARG_OF_PERICENTER":97.0458,"MEAN_ANOMALY":263.0888,"EPHEMERIS_TYPE":0,"CLASSIFICATION_TYPE":"U","NORAD_CAT_ID":54121,"ELEMENT_SET_NO":999,"REV_AT_EPOCH":15187,"BSTAR":-9.4016206e-5,"MEAN_MOTION_DOT":-2.5e-7,"MEAN_MOTION_DDOT":0},{"OBJECT_NAME":"ONEWEB-0504","OBJECT_ID":"2022-138K","EPOCH":"2025-12-10T00:59:17.739456","MEAN_MOTION":13.19723898,"ECCENTRICITY":0.00020584,"INCLINATION":87.9201,"RA_OF_ASC_NODE":342.5979,"ARG_OF_PERICENTER":90.2144,"MEAN_ANOMALY":269.9225,"EPHEMERIS_TYPE":0,"CLASSIFICATION_TYPE":"U","NORAD_CAT_ID":54122,"ELEMENT_SET_NO":999,"REV_AT_EPOCH":15188,"BSTAR":4.4821453e-5,"MEAN_MOTION_DOT":3.1e-7,"MEAN_MOTION_DDOT":0},{"OBJECT_NAME":"ONEWEB-0505","OBJECT_ID":"2022-138L","EPOCH":"2025-12-10T00:54:45.316800","MEAN_MOTION":13.19724542,"ECCENTRICITY":0.00023015,"INCLINATION":87.9207,"RA_OF_ASC_NODE":342.5882,"ARG_OF_PERICENTER":85.5037,"MEAN_ANOMALY":274.6358,"EPHEMERIS_TYPE":0,"CLASSIFICATION_TYPE":"U","NORAD_CAT_ID":54123,"ELEMENT_SET_NO":999,"REV_AT_EPOCH":15186,"BSTAR":0.00012137204,"MEAN_MOTION_DOT":6.2e-7,"MEAN_MOTION_DDOT":0},{"OBJECT_NAME":"ONEWEB-0506","OBJECT_ID":"2022-138M","EPOCH":"2025-12-10T00:18:22.103712","MEAN_MOTION":13.19724849,"ECCENTRICITY":0.00019981,"INCLINATION":87.9207,"RA_OF_ASC_NODE":342.5906,"ARG_OF_PERICENTER":87.8483,"MEAN_ANOMALY":272.2878,"EPHEMERIS_TYPE":0,"CLASSIFICATION_TYPE":"U","NORAD_CAT_ID":54124,"ELEMENT_SET_NO":999,"REV_AT_EPOCH":15185,"BSTAR":3.397416e-5,"MEAN_MOTION_DOT":2.7e-7,"MEAN_MOTION_DDOT":0},{"OBJECT_NAME":"ONEWEB-0507","OBJECT_ID":"2022-138N","EPOCH":"2025-12-10T00:47:56.164416","MEAN_MOTION":13.19724194,"ECCENTRICITY":0.00019613,"INCLINATION":87.9189,"RA_OF_ASC_NODE":342.6219,"ARG_OF_PERICENTER":84.526,"MEAN_ANOMALY":275.6096,"EPHEMERIS_TYPE":0,"CLASSIFICATION_TYPE":"U","NORAD_CAT_ID":54125,"ELEMENT_SET_NO":999,"REV_AT_EPOCH":15190,"BSTAR":2.5521439e-5,"MEAN_MOTION_DOT":2.3e-7,"MEAN_MOTION_DDOT":0},{"OBJECT_NAME":"ONEWEB-0508","OBJECT_ID":"2022-138P","EPOCH":"2025-12-10T00:43:23.409984","MEAN_MOTION":13.19725062,"ECCENTRICITY":0.00020813,"INCLINATION":87.9198,"RA_OF_ASC_NODE":342.6163,"ARG_OF_PERICENTER":81.9582,"MEAN_ANOMALY":278.1787,"EPHEMERIS_TYPE":0,"CLASSIFICATION_TYPE":"U","NORAD_CAT_ID":54126,"ELEMENT_SET_NO":999,"REV_AT_EPOCH":15188,"BSTAR":0.00022308028,"MEAN_MOTION_DOT":1.02e-6,"MEAN_MOTION_DDOT":0},{"OBJECT_NAME":"ONEWEB-0509","OBJECT_ID":"2022-138Q","EPOCH":"2025-12-09T16:50:16.953504","MEAN_MOTION":13.19724415,"ECCENTRICITY":0.00019124,"INCLINATION":87.9209,"RA_OF_ASC_NODE":342.6517,"ARG_OF_PERICENTER":86.8467,"MEAN_ANOMALY":273.2885,"EPHEMERIS_TYPE":0,"CLASSIFICATION_TYPE":"U","NORAD_CAT_ID":54127,"ELEMENT_SET_NO":999,"REV_AT_EPOCH":15181,"BSTAR":0.00027324526,"MEAN_MOTION_DOT":1.22e-6,"MEAN_MOTION_DDOT":0},{"OBJECT_NAME":"ONEWEB-0510","OBJECT_ID":"2022-138R","EPOCH":"2025-12-10T04:39:25.497504","MEAN_MOTION":13.20769496,"ECCENTRICITY":0.00013519,"INCLINATION":87.9195,"RA_OF_ASC_NODE":312.1263,"ARG_OF_PERICENTER":92.7959,"MEAN_ANOMALY":267.3329,"EPHEMERIS_TYPE":0,"CLASSIFICATION_TYPE":"U","NORAD_CAT_ID":54128,"ELEMENT_SET_NO":999,"REV_AT_EPOCH":15433,"BSTAR":0.00010728834,"MEAN_MOTION_DOT":5.7e-7,"MEAN_MOTION_DDOT":0},{"OBJECT_NAME":"ONEWEB-0511","OBJECT_ID":"2022-138S","EPOCH":"2025-12-10T01:51:37.531008","MEAN_MOTION":13.1972478,"ECCENTRICITY":0.00019452,"INCLINATION":87.9212,"RA_OF_ASC_NODE":342.5803,"ARG_OF_PERICENTER":96.1002,"MEAN_ANOMALY":264.0353,"EPHEMERIS_TYPE":0,"CLASSIFICATION_TYPE":"U","NORAD_CAT_ID":54129,"ELEMENT_SET_NO":999,"REV_AT_EPOCH":15189,"BSTAR":-0.000209937,"MEAN_MOTION_DOT":-7.1e-7,"MEAN_MOTION_DDOT":0},{"OBJECT_NAME":"ONEWEB-0512","OBJECT_ID":"2022-138T","EPOCH":"2025-12-10T01:40:14.854368","MEAN_MOTION":13.19724554,"ECCENTRICITY":0.0002139,"INCLINATION":87.9195,"RA_OF_ASC_NODE":342.6066,"ARG_OF_PERICENTER":88.1528,"MEAN_ANOMALY":271.985,"EPHEMERIS_TYPE":0,"CLASSIFICATION_TYPE":"U","NORAD_CAT_ID":54130,"ELEMENT_SET_NO":999,"REV_AT_EPOCH":15186,"BSTAR":-0.00013750287,"MEAN_MOTION_DOT":-4.2e-7,"MEAN_MOTION_DDOT":0},{"OBJECT_NAME":"ONEWEB-0513","OBJECT_ID":"2022-138U","EPOCH":"2025-12-10T01:50:04.928352","MEAN_MOTION":13.20259944,"ECCENTRICITY":0.00026476,"INCLINATION":87.921,"RA_OF_ASC_NODE":342.5662,"ARG_OF_PERICENTER":93.53,"MEAN_ANOMALY":266.6136,"EPHEMERIS_TYPE":0,"CLASSIFICATION_TYPE":"U","NORAD_CAT_ID":54131,"ELEMENT_SET_NO":999,"REV_AT_EPOCH":15176,"BSTAR":-0.00014185733,"MEAN_MOTION_DOT":-4.4e-7,"MEAN_MOTION_DDOT":0},{"OBJECT_NAME":"ONEWEB-0514","OBJECT_ID":"2022-138V","EPOCH":"2025-12-10T00:13:48.505152","MEAN_MOTION":13.19724358,"ECCENTRICITY":0.00017144,"INCLINATION":87.9201,"RA_OF_ASC_NODE":342.6033,"ARG_OF_PERICENTER":91.8731,"MEAN_ANOMALY":268.2598,"EPHEMERIS_TYPE":0,"CLASSIFICATION_TYPE":"U","NORAD_CAT_ID":54132,"ELEMENT_SET_NO":999,"REV_AT_EPOCH":15187,"BSTAR":-8.7511437e-5,"MEAN_MOTION_DOT":-2.2e-7,"MEAN_MOTION_DDOT":0}]
