ONEWEB-0497             
1 54116U 22138D   25344.29074559  .00000059  00000+0  11554-3 0  9994
2 54116  87.9199 342.5476 0001857  86.3843 273.7503 13.19724409151897
ONEWEB-0499             
1 54117U 22138E   25344.04671983  .00000023  00000+0  24674-4 0  9991
2 54117  87.9197 342.6092 0001987  90.9502 269.1858 13.19725559151875
ONEWEB-0500             
1 54118U 22138F   25344.04908292  .00000003  00000+0 -24039-4 0  9992
2 54118  87.9199 342.5962 0001714  87.5758 272.5571 13.19723748151885
ONEWEB-0501             
1 54119U 22138G   25344.00328307 -.00000058  00000+0 -17701-3 0  9990
2 54119  87.9209 342.6035 0002135  84.5674 275.5702 13.19724134151858
ONEWEB-0502             
1 54120U 22138H   25344.29232981  .00000046  00000+0  81970-4 0  9990
2 54120  87.9207 342.5276 0002071  88.6844 271.4527 13.19724796151918
ONEWEB-0503             
1 54121U 22138J   25344.05381831 -.00000025  00000+0 -94016-4 0  9998
2 54121  87.9206 342.5791 0001876  97.0458 263.0888 13.19724348151872
ONEWEB-0504             
1 54122U 22138K   25344.04117754  .00000031  00000+0  44821-4 0  9993
2 54122  87.9201 342.5979 0002058  90.2144 269.9225 13.19723898151886
ONEWEB-0505             
1 54123U 22138L   25344.03802450  .00000062  00000+0  12137-3 0  9995
2 54123  87.9207 342.5882 0002301  85.5037 274.6358 13.19724542151860
ONEWEB-0506             
1 54124U 22138M   25344.01275583  .00000027  00000+0  33974-4 0  9999
2 54124  87.9207 342.5906 0001998  87.8483 272.2878 13.19724849151859
ONEWEB-0507             
1 54125U 22138N   25344.03328894  .00000023  00000+0  25521-4 0  9991
2 54125  87.9189 342.6219 0001961  84.5260 275.6096 13.19724194151902
ONEWEB-0508             
1 54126U 22138P   25344.03013206  .00000102  00000+0  22308-3 0  9997
2 54126  87.9198 342.6163 0002081  81.9582 278.1787 13.19725062151880
ONEWEB-0509             
1 54127U 22138Q   25343.70158511  .00000122  00000+0  27325-3 0  9996
2 54127  87.9209 342.6517 0001912  86.8467 273.2885 13.19724415151814
ONEWEB-0510             
1 54128U 22138R   25344.19404511  .00000057  00000+0  10729-3 0  9992
2 54128  87.9195 312.1263 0001351  92.7959 267.3329 13.20769496154335
ONEWEB-0511             
1 54129U 22138S   25344.07751772 -.00000071  00000+0 -20994-3 0  9997
2 54129  87.9212 342.5803 0001945  96.1002 264.0353 13.19724780151893
ONEWEB-0512             
1 54130U 22138T   25344.06961637 -.00000042  00000+0 -13750-3 0  9991
2 54130  87.9195 342.6066 0002139  88.1528 271.9850 13.19724554151862
ONEWEB-0513             
1 54131U 22138U   25344.07644593 -.00000044  00000+0 -14186-3 0  9998
2 54131  87.9210 342.5662 0002647  93.5300 266.6136 13.20259944151769
ONEWEB-0514             
1 54132U 22138V   25344.00958918 -.00000022  00000+0 -87511-4 0  9990
2 54132  87.9201 342.6033 0001714  91.8731 268.2598 13.19724358151872
